STARLINK-4142           
1 53255C 22086P   26203.53312500 -.00069245  00000+0 -43437-2 0  2038
2 53255  53.1588 308.4813 0001177  88.6926 147.0506 15.08859131    19
STARLINK-4147           
1 53256C 22086Q   26203.62409722 -.00033316  00000+0 -20900-2 0  2032
2 53256  53.1590 308.0754 0001047  83.8550 266.3131 15.08839976    13
STARLINK-4144           
1 53257C 22086R   26203.60395833  .00003965  00000+0  24873-3 0  2037
2 53257  53.1588 308.1658 0001137  75.9744 244.7430 15.08816351    16
STARLINK-4127           
1 53258C 22086S   26203.61854167 -.00017677  00000+0 -11090-2 0  2032
2 53258  53.1588 308.0998 0001112  88.4792 271.4945 15.08827503    17
STARLINK-4140           
1 53259C 22086T   26203.59631944 -.00015691  00000+0 -98406-3 0  2037
2 53259  53.1594 307.8384 0001239  82.0966  37.3165 15.08839842    16
STARLINK-4062           
1 53261C 22086V   26203.58590278 -.00001305  00000+0 -37350-4 0  2032
2 53261  53.1600 305.7025 0000644  59.0469  91.7827 15.35392167    10
STARLINK-4085           
1 53262C 22086W   26203.60881944  .00009345  00000+0  28369-3 0  2038
2 53262  53.1595 305.5212 0000960  85.2623 190.8868 15.33530929    18
STARLINK-4130           
1 53263C 22086X   26203.59909722  .00002392  00000+0  82753-4 0  2035
2 53263  53.1596 304.0964 0001090  78.7000 239.7339 15.29347555    11
STARLINK-3950           
1 53264C 22086Y   26203.53381944  .00482720  00000+0  15143-1 0  2033
2 53264  53.1601 306.6444 0001123  74.2964 129.9424 15.32252616    19
STARLINK-4097           
1 53265C 22086Z   26203.59145833  .00239500  00000+0  91760-2 0  2031
2 53265  53.1608 306.4095 0001278  62.9979 164.5882 15.25875646    17
STARLINK-4058           
1 53266C 22086AA  26203.57618056 -.00005048  00000+0 -15323-3 0  2034
2 53266  53.1603 305.7452 0001154  76.4202  62.0653 15.33542107    14
STARLINK-4060           
1 53267C 22086AB  26203.57756944 -.00001368  00000+0 -39094-4 0  2037
2 53267  53.1603 305.7679 0001273  51.4570 139.1738 15.35445103    19
STARLINK-4109           
1 53268C 22086AC  26203.61854167  .00008442  00000+0  32326-3 0  2037
2 53268  53.1566 304.5987 0001763  86.1585  99.9561 15.26008848    10
STARLINK-4122           
1 53272C 22086AG  26203.59423611 -.00023756  00000+0 -67966-3 0  2030
2 53272  53.1589 293.4323 0001136  77.8061 297.8458 15.35411601    19
STARLINK-4051           
1 53273C 22086AH  26203.61715278  .00009273  00000+0  28152-3 0  2037
2 53273  53.1581 293.7885 0001300  81.0239 285.7329 15.33528938    18
STARLINK-4050           
1 53274C 22086AJ  26203.62756944 -.00019960  00000+0 -60580-3 0  2031
2 53274  53.1580 293.5668 0000970  73.2052  18.9585 15.33551799    14
STARLINK-4179           
1 53275C 22086AK  26203.60534722  .00015737  00000+0  45047-3 0  2035
2 53275  53.1587 294.4580 0001187  72.1631 293.1851 15.35375448    17
STARLINK-4174           
1 53276C 22086AL  26203.61576389 -.00023104  00000+0 -66125-3 0  2031
2 53276  53.1589 293.6618 0001187  71.4821 336.8230 15.35399577    11
STARLINK-4178           
1 53277C 22086AM  26203.61159722  .00331610  00000+0  12124-1 0  2030
2 53277  53.1610 295.0579 0001421  57.4370  81.4901 15.27374453    18
STARLINK-4180           
1 53278C 22086AN  26203.58520833  .00005556  00000+0  17875-3 0  2039
2 53278  53.1578 294.8187 0001213  75.9291  61.5905 15.31685872    18
STARLINK-4169           
1 53280C 22086AQ  26203.63798611  .00032582  00000+0  11224-2 0  2039
2 53280  53.1597 250.6956 0000918  54.0355  59.9726 15.29468046    17
STARLINK-4164           
1 53282C 22086AS  26203.59145833  .00009519  00000+0  28886-3 0  2035
2 53282  53.1598 293.6640 0001385  79.0773 350.5067 15.33541183    14
STARLINK-4175           
1 53283C 22086AT  26203.60326389  .00016987  00000+0  51560-3 0  2037
2 53283  53.1595 293.7764 0001211  81.6695  27.8985 15.33532521    19
STARLINK-4173           
1 53285C 22086AV  26203.62965278  .00031925  00000+0  91339-3 0  2034
2 53285  53.1603 293.6798 0001022  66.5617 235.1589 15.35383755    12
STARLINK-4165           
1 53286C 22086AW  26203.56020833 -.00060005  00000+0 -19299-2 0  2034
2 53286  53.1580 294.9216 0001375  84.7317  43.4344 15.31727015    12
STARLINK-4107           
1 53287C 22086AX  26203.58243056  .00003927  00000+0  11917-3 0  2039
2 53287  53.1588 293.8090 0001295  77.2096  49.5278 15.33545677    18
STARLINK-4162           
1 53288C 22086AY  26203.60812500  .00256220  00000+0  75659-2 0  2037
2 53288  53.1599 294.0176 0001048  64.1187 337.2782 15.34280494    12
STARLINK-4176           
1 53289C 22086AZ  26203.61159722  .00029987  00000+0  88641-3 0  2033
2 53289  53.1586 289.3792 0000931  78.9619  46.5903 15.34359906    13
STARLINK-4149           
1 53290C 22086BA  26203.57618056 -.00002121  00000+0 -12831-3 0  2031
2 53290  53.2164 298.3478 0000967  44.7081  28.7855 15.10150830    19
STARLINK-4166           
1 53291C 22086BB  26203.62340278  .00325790  00000+0  10314-1 0  2036
2 53291  53.1608 289.8734 0001161  60.3706 209.4583 15.32040212    19
STARLINK-4159           
1 53292C 22086BC  26203.59284722  .00014985  00000+0  42879-3 0  2038
2 53292  53.1587 293.6670 0001237  79.4482 161.7944 15.35387126    16
STARLINK-4148           
1 53293C 22086BD  26203.61437500  .00035195  00000+0  10400-2 0  2036
2 53293  53.1606 285.3644 0001347  79.4029 238.6053 15.34367835    16
STARLINK-4146           
1 53294C 22086BE  26203.62270833  .00261560  00000+0  10676-1 0  2033
2 53294  53.1610 286.4516 0001455  67.0639 260.3771 15.23754228    15
STARLINK-4522           
1 53388C 22097A   26203.59006944  .00030694  00000+0  19251-2 0  2036
2 53388  53.1587 238.2200 0000727  74.4941 295.7237 15.08814917    10
STARLINK-4523           
1 53389C 22097B   26203.60118056  .00028823  00000+0  18071-2 0  2037
2 53389  53.1580 238.1735 0001086  71.6984  38.8018 15.08829126    12
STARLINK-4517           
1 53390C 22097C   26203.58798611  .00032511  00000+0  20389-2 0  2031
2 53390  53.1581 238.2333 0001077  70.4014 308.4930 15.08817700    15
STARLINK-4521           
1 53391C 22097D   26203.54979167  .00836880  00000+0  33304-1 0  2036
2 53391  53.1592 237.8656 0001252  76.7471  53.7009 15.24314703    12
STARLINK-4535           
1 53392C 22097E   26203.56229167  .00788210  00000+0  34561-1 0  2036
2 53392  53.1590 238.0019 0001339  77.0670  61.2227 15.21068140    12
STARLINK-4530           
1 53393C 22097F   26203.59215278  .00034550  00000+0  21671-2 0  2038
2 53393  53.1578 238.2131 0001266  73.6886  27.8612 15.08810448    13
STARLINK-4544           
1 53394C 22097G   26203.52965278  .00048175  00000+0  18169-2 0  2030
2 53394  53.1581 226.3618 0001176  77.5666 158.2134 15.26493767    14
STARLINK-4534           
1 53395C 22097H   26203.58381944  .00797910  00000+0  30522-1 0  2033
2 53395  53.1607 237.6320 0001292  74.2562 342.4537 15.25650993    16
STARLINK-4524           
1 53396C 22097J   26203.60118056  .00010475  00000+0  65689-3 0  2037
2 53396  53.1568 238.1715 0001051  72.9901 197.5993 15.08830761    11
STARLINK-4515           
1 53397C 22097K   26203.59979167  .00029034  00000+0  18205-2 0  2036
2 53397  53.1572 238.1784 0000998  68.8805 134.1634 15.08826405    18
STARLINK-4512           
1 53398C 22097L   26203.53034722  .00033772  00000+0  21179-2 0  2038
2 53398  53.1572 238.4895 0000516  48.8603 236.7720 15.08818335    13
STARLINK-4528           
1 53399C 22097M   26203.57826389  .00037681  00000+0  23631-2 0  2039
2 53399  53.1571 238.2743 0000935  72.9895  53.0704 15.08814842    10
STARLINK-4520           
1 53400C 22097N   26203.58937500  .00023438  00000+0  14701-2 0  2034
2 53400  53.1576 238.2278 0000985  80.7951 225.6444 15.08817423    12
STARLINK-4525           
1 53401C 22097P   26203.58243056  .00031149  00000+0  19540-2 0  2035
2 53401  53.1570 238.2548 0001120  75.3770 113.3662 15.08807959    16
STARLINK-4499           
1 53402C 22097Q   26203.58798611  .00741200  00000+0  32723-1 0  2031
2 53402  53.1593 237.7654 0001221  68.9406 133.1592 15.20858201    12
STARLINK-4507           
1 53403C 22097R   26203.59631944  .00770060  00000+0  27792-1 0  2034
2 53403  53.1607 237.7322 0001313  72.1038 105.9738 15.27580650    17
STARLINK-4509           
1 53404C 22097S   26203.57340278 -.00003177  00000+0 -10219-3 0  2038
2 53404  53.1586 225.8016 0001559  86.5913  53.7945 15.31695016    13
STARLINK-4510           
1 53405C 22097T   26203.59423611  .00027423  00000+0  17200-2 0  2038
2 53405  53.1584 238.2018 0001088  65.6634 307.2114 15.08815388    12
STARLINK-4533           
1 53406C 22097U   26203.58243056  .00020315  00000+0  65316-3 0  2036
2 53406  53.1607 225.7542 0001261  78.5778 214.4593 15.31697436    15
STARLINK-4491           
1 53408C 22097W   26203.59284722  .00015633  00000+0  98058-3 0  2030
2 53408  53.1580 228.2123 0000996  60.3466  19.8848 15.08819976    16
STARLINK-4490           
1 53409C 22097X   26203.60395833 -.00008066  00000+0 -23074-3 0  2039
2 53409  53.1586 214.2217 0001304  70.4458  69.2854 15.35408082    17
STARLINK-4492           
1 53410C 22097Y   26203.62270833 -.00008781  00000+0 -55071-3 0  2031
2 53410  53.1577 228.0745 0001171  74.5568 188.0550 15.08835978    18
STARLINK-4497           
1 53411C 22097Z   26203.58729167  .00016270  00000+0  10204-2 0  2034
2 53411  53.1578 228.2324 0000993  68.4816 321.6246 15.08824479    15
STARLINK-4496           
1 53412C 22097AA  26203.57409722  .00025652  00000+0  16087-2 0  2035
2 53412  53.1578 228.2948 0000719  54.7086   3.7059 15.08821833    12
STARLINK-4500           
1 53413C 22097AB  26203.53381944  .00043864  00000+0  27506-2 0  2030
2 53413  53.1584 228.4734 0001077  57.9392 101.5658 15.08814946    17
STARLINK-4304           
1 53414C 22097AC  26203.53451389  .00318530  00000+0  13539-1 0  2037
2 53414  53.1590 227.9619 0001351  70.4860  57.5111 15.22358794    10
